[{"OBJECT_NAME":"STARLINK-1471","OBJECT_ID":"2020-038F","EPOCH":"2026-03-09T12:24:52.214400","MEAN_MOTION":15.48889608,"ECCENTRICITY":7.356e-5,"INCLINATION":53.0461,"RA_OF_ASC_NODE":142.8505,"ARG_OF_PERICENTER":252.2719,"MEAN_ANOMALY":107.8208,"EPHEMERIS_TYPE":0,"CLASSIFICATION_TYPE":"U","NORAD_CAT_ID":45735,"ELEMENT_SET_NO":999,"REV_AT_EPOCH":31750,"BSTAR":0.00048031004,"MEAN_MOTION_DOT":0.00025966,"MEAN_MOTION_DDOT":0},{"OBJECT_NAME":"SITRO-AIS 48","OBJECT_ID":"2024-199AN","EPOCH":"2026-03-09T22:14:21.736608","MEAN_MOTION":15.49861286,"ECCENTRICITY":0.00072978,"INCLINATION":97.3088,"RA_OF_ASC_NODE":302.9717,"ARG_OF_PERICENTER":300.4722,"MEAN_ANOMALY":59.5809,"EPHEMERIS_TYPE":0,"CLASSIFICATION_TYPE":"U","NORAD_CAT_ID":61771,"ELEMENT_SET_NO":999,"REV_AT_EPOCH":11901,"BSTAR":0.00079867142,"MEAN_MOTION_DOT":0.00044677,"MEAN_MOTION_DDOT":0}]
